{"fetched_at":"2026-03-29T02:12:04Z","count":15717,"tles":[{"name":"BEIDOU-3 M23 (C45)","line1":"1 44543U 19061B   26086.19599552 -.00000037  00000+0  00000+0 0  9993","line2":"2 44543  54.3950 185.4615 0004848   1.0858 343.2659  1.86227116 44266","category":"GPS"}]}