{
  "norad_id": 44543,
  "name": "BEIDOU-3 M23",
  "history": [
    {
      "epoch": "2026-03-27T04:42:14.012928Z",
      "apogee_km": 21541.96868322747,
      "perigee_km": 21514.910466580444,
      "latitude_deg": -12.707956512364694,
      "longitude_deg": -79.00213942896163,
      "height_km": 21518.37380760481,
      "semi_major_axis_km": 27906.576574903956,
      "eccentricity": 0.0004848,
      "inclination_deg": 54.395,
      "raan_deg": 185.4615,
      "arg_perigee_deg": 1.0858,
      "mean_anomaly_deg": 343.2659,
      "mean_motion_rev_day": 1.86227116
    }
  ]
}